
FENGYUN 3H
1 65815U 25219A   26170.08457710  .00000037  00000+0  37910-4 0  9995
2 65815  98.6768 110.8168 0001597  75.7764 284.3590 14.19920684 37650

GOES 19
1 60133U 24119A   26170.22732483 -.00000254  00000+0  00000+0 0  9997
2 60133   0.0407 169.2537 0000372 359.8716 104.9732  1.00270717  6984

INSAT-3DS
1 58990U 24033A   26170.05374661 -.00000162  00000+0  00000+0 0  9999
2 58990   0.0458 107.2334 0001101 328.7504 292.7453  1.00271092 47085

METEOR-M2 4
1 59051U 24039A   26170.29369454 -.00000001  00000+0  19206-4 0  9999
2 59051  98.7011 129.5653 0007404 155.1826 204.9709 14.22429704119560

METOP-SGA1
1 65159U 25172A   26167.15332899  .00000049  00000+0  42000-4 0  9997
2 65159  98.6644 226.8998 0000902  93.8213 266.3067 14.21509720 43644

MTG-S1
1 64723U 25143A   26169.39513119 -.00000028  00000+0  00000+0 0  9992
2 64723   0.6020 339.2639 0003993  77.2395 348.9838  1.00323776  3436

TIANMU-1 15
1 58700U 24004A   26170.32660192  .00004569  00000+0  17496-3 0  9998
2 58700  97.4671 356.5170 0006477 354.7381   5.3789 15.27041460136101

TIANMU-1 16
1 58701U 24004B   26170.31622410  .00004536  00000+0  17518-3 0  9998
2 58701  97.4618 355.7410 0005598   0.4633 359.6610 15.26766452136101

TIANMU-1 17
1 58702U 24004C   26170.30167884  .00004428  00000+0  17109-3 0  9993
2 58702  97.4645 356.2122 0005316   7.1992 352.9322 15.26765405136099

TIANMU-1 18
1 58703U 24004D   26170.27771346  .00004471  00000+0  17143-3 0  9990
2 58703  97.4663 356.4451 0003830   8.6470 351.4834 15.27022558136091

TIANMU-1 20
1 58661U 23208B   26170.28317936  .00006726  00000+0  21483-3 0  9997
2 58661  97.4452 287.2311 0005864 325.2837  34.8021 15.32790934137749

TIANMU-1 21
1 58662U 23208C   26170.26836528  .00008064  00000+0  23898-3 0  9998
2 58662  97.4511 289.9057 0005863 314.8570  45.2196 15.35107827137889

TIANMU-1 22
1 58663U 23208D   26170.29483346  .00006038  00000+0  20368-3 0  9996
2 58663  97.4506 286.5396 0003009 356.1266   3.9951 15.31082531137659
