OBJECT_NAME,OBJECT_ID,EPOCH,MEAN_MOTION,ECCENTRICITY,INCLINATION,RA_OF_ASC_NODE,ARG_OF_PERICENTER,MEAN_ANOMALY,EPHEMERIS_TYPE,CLASSIFICATION_TYPE,NORAD_CAT_ID,ELEMENT_SET_NO,REV_AT_EPOCH,BSTAR,MEAN_MOTION_DOT,MEAN_MOTION_DDOT
TIANMU-1 20,2023-208B,2026-06-19T06:47:46.696704,15.32790934,.00058647,97.4452,287.2311,325.2837,34.8021,0,U,58661,999,13774,.21483339E-3,.6726E-4,0
TIANMU-1 21,2023-208C,2026-06-19T06:26:26.760192,15.35107827,.00058635,97.4511,289.9057,314.8570,45.2196,0,U,58662,999,13788,.23898119E-3,.8064E-4,0
TIANMU-1 22,2023-208D,2026-06-19T07:04:33.610944,15.31082531,.00030096,97.4506,286.5396,356.1266,3.9951,0,U,58663,999,13765,.20368002E-3,.6038E-4,0
TIANMU-1 15,2024-004A,2026-06-19T07:50:18.405888,15.27041460,.00064773,97.4671,356.5170,354.7381,5.3789,0,U,58700,999,13610,.17496046E-3,.4569E-4,0
TIANMU-1 16,2024-004B,2026-06-19T07:35:21.762240,15.26766452,.0005598,97.4618,355.7410,0.4633,359.6610,0,U,58701,999,13610,.17517662E-3,.4536E-4,0
TIANMU-1 17,2024-004C,2026-06-19T07:14:25.051776,15.26765405,.00053166,97.4645,356.2122,7.1992,352.9322,0,U,58702,999,13609,.17108508E-3,.4428E-4,0
TIANMU-1 18,2024-004D,2026-06-19T06:39:54.442944,15.27022558,.00038304,97.4663,356.4451,8.6470,351.4834,0,U,58703,999,13609,.17143032E-3,.4471E-4,0
INSAT-3DS,2024-033A,2026-06-19T01:17:23.707104,1.00271092,.0001101,0.0458,107.2334,328.7504,292.7453,0,U,58990,999,4708,0,-.162E-5,0
METEOR-M2 4,2024-039A,2026-06-19T07:02:55.208256,14.22429704,.00074043,98.7011,129.5653,155.1826,204.9709,0,U,59051,999,11956,.19206012E-4,-.1E-7,0
GOES 19,2024-119A,2026-06-19T05:27:20.865312,1.00270717,.00003729,0.0407,169.2537,359.8716,104.9732,0,U,60133,999,698,0,-.254E-5,0
MTG-S1,2025-143A,2026-06-18T09:28:59.334816,1.00323776,.0003993,0.6020,339.2639,77.2395,348.9838,0,U,64723,999,343,0,-.28E-6,0
METOP-SGA1,2025-172A,2026-06-16T03:40:47.624736,14.21509720,.0000902,98.6644,226.8998,93.8213,266.3067,0,U,65159,999,4364,.41999845E-4,.49E-6,0
FENGYUN 3H,2025-219A,2026-06-19T02:01:47.461440,14.19920684,.00015975,98.6768,110.8168,75.7764,284.3590,0,U,65815,999,3765,.37909729E-4,.37E-6,0
